[
    {
        "Altitude(m)": 702731.1985268922,
        "Argument of Periapsis(deg)": 0.011390121186627068,
        "Eccentricity": 0.0,
        "Inclination(deg)": 45.0,
        "Latitude(deg)": 14.831127761290897,
        "Longitude(deg)": -91.04405876680511,
        "Mean Anomaly(deg)": -201.19408335251921,
        "RAAN(deg)": 204.9892480585418,
        "Satellite Name": "Constellation 1 911",
        "Satellite Number": 911,
        "Semi-Major Axis(m)": 7083131.272910544,
        "Time(s)": 190
    },
    {
        "Altitude(m)": 702729.9014356843,
        "Argument of Periapsis(deg)": 0.011450069192872472,
        "Eccentricity": 0.0,
        "Inclination(deg)": 45.0,
        "Latitude(deg)": 14.789444817629011,
        "Longitude(deg)": -91.00231782395142,
        "Mean Anomaly(deg)": -201.1333822122693,
        "RAAN(deg)": 204.98919146937624,
        "Satellite Name": "Constellation 1 911",
        "Satellite Number": 911,
        "Semi-Major Axis(m)": 7083131.272910544,
        "Time(s)": 191
    },
    {
        "Altitude(m)": 702728.6217856914,
        "Argument of Periapsis(deg)": 0.01151001719911788,
        "Eccentricity": 0.0,
        "Inclination(deg)": 45.0,
        "Latitude(deg)": 14.74775264690095,
        "Longitude(deg)": -90.96059440306139,
        "Mean Anomaly(deg)": -201.07268107201938,
        "RAAN(deg)": 204.98913488021063,
        "Satellite Name": "Constellation 1 911",
        "Satellite Number": 911,
        "Semi-Major Axis(m)": 7083131.272910544,
        "Time(s)": 192
    },
    {
        "Altitude(m)": 702727.3596004806,
        "Argument of Periapsis(deg)": 0.011569965205363285,
        "Eccentricity": 0.0,
        "Inclination(deg)": 45.0,
        "Latitude(deg)": 14.706051279800441,
        "Longitude(deg)": -90.91888861792731,
        "Mean Anomaly(deg)": -201.01197993176947,
        "RAAN(deg)": 204.98907829104508,
        "Satellite Name": "Constellation 1 911",
        "Satellite Number": 911,
        "Semi-Major Axis(m)": 7083131.272910544,
        "Time(s)": 193
    },
    {
        "Altitude(m)": 702726.1149035412,
        "Argument of Periapsis(deg)": 0.01162991321160869,
        "Eccentricity": 0.0,
        "Inclination(deg)": 45.0,
        "Latitude(deg)": 14.664340746986824,
        "Longitude(deg)": -90.8772000780806,
        "Mean Anomaly(deg)": -200.9512787915196,
        "RAAN(deg)": 204.9890217018795,
        "Satellite Name": "Constellation 1 911",
        "Satellite Number": 911,
        "Semi-Major Axis(m)": 7083131.272910544,
        "Time(s)": 194
    },
    {
        "Altitude(m)": 702724.8877182957,
        "Argument of Periapsis(deg)": 0.011689861217854095,
        "Eccentricity": 0.0,
        "Inclination(deg)": 45.0,
        "Latitude(deg)": 14.622621079085595,
        "Longitude(deg)": -90.83552889737402,
        "Mean Anomaly(deg)": -200.8905776512697,
        "RAAN(deg)": 204.98896511271394,
        "Satellite Name": "Constellation 1 911",
        "Satellite Number": 911,
        "Semi-Major Axis(m)": 7083131.272910544,
        "Time(s)": 195
    },
    {
        "Altitude(m)": 702723.6780680917,
        "Argument of Periapsis(deg)": 0.0117498092240995,
        "Eccentricity": 0.0,
        "Inclination(deg)": 45.0,
        "Latitude(deg)": 14.58089230668834,
        "Longitude(deg)": -90.79387502159338,
        "Mean Anomaly(deg)": -200.82987651101982,
        "RAAN(deg)": 204.98890852354833,
        "Satellite Name": "Constellation 1 911",
        "Satellite Number": 911,
        "Semi-Major Axis(m)": 7083131.272910544,
        "Time(s)": 196
    },
    {
        "Altitude(m)": 702722.4859762068,
        "Argument of Periapsis(deg)": 0.011809757230344905,
        "Eccentricity": 0.0,
        "Inclination(deg)": 45.0,
        "Latitude(deg)": 14.53915446035283,
        "Longitude(deg)": -90.75223839655473,
        "Mean Anomaly(deg)": -200.7691753707699,
        "RAAN(deg)": 204.98885193438278,
        "Satellite Name": "Constellation 1 911",
        "Satellite Number": 911,
        "Semi-Major Axis(m)": 7083131.272910544,
        "Time(s)": 197
    },
    {
        "Altitude(m)": 702721.3114658414,
        "Argument of Periapsis(deg)": 0.011869705236590313,
        "Eccentricity": 0.0,
        "Inclination(deg)": 45.0,
        "Latitude(deg)": 14.497407570603247,
        "Longitude(deg)": -90.71061896810436,
        "Mean Anomaly(deg)": -200.70847423052,
        "RAAN(deg)": 204.98879534521723,
        "Satellite Name": "Constellation 1 911",
        "Satellite Number": 911,
        "Semi-Major Axis(m)": 7083131.272910544,
        "Time(s)": 198
    },
    {
        "Altitude(m)": 702720.154560132,
        "Argument of Periapsis(deg)": 0.011929653242835719,
        "Eccentricity": 0.0,
        "Inclination(deg)": 45.0,
        "Latitude(deg)": 14.455651667930052,
        "Longitude(deg)": -90.66901668211848,
        "Mean Anomaly(deg)": -200.64777309027008,
        "RAAN(deg)": 204.98873875605165,
        "Satellite Name": "Constellation 1 911",
        "Satellite Number": 911,
        "Semi-Major Axis(m)": 7083131.272910544,
        "Time(s)": 199
    }
]